{
  "norad_id": 53589,
  "name": "STARLINK-4673",
  "history": [
    {
      "epoch": "2026-03-28T21:30:36.900288Z",
      "apogee_km": 540.8052910354272,
      "perigee_km": 538.7174693042925,
      "latitude_deg": -2.1750793133436027e-05,
      "longitude_deg": 8.986602123457097,
      "height_km": 540.7591772738969,
      "semi_major_axis_km": 6917.89838016986,
      "eccentricity": 0.0001509,
      "inclination_deg": 53.2193,
      "raan_deg": 157.9505,
      "arg_perigee_deg": 95.6121,
      "mean_anomaly_deg": 264.5043,
      "mean_motion_rev_day": 15.08834114
    }
  ]
}